[{"OBJECT_NAME":"THOR 7","OBJECT_ID":"2015-022A","EPOCH":"2026-03-03T15:47:05.952192","MEAN_MOTION":1.0027116,"ECCENTRICITY":0.0002654,"INCLINATION":0.009,"RA_OF_ASC_NODE":190.8506,"ARG_OF_PERICENTER":151.606,"MEAN_ANOMALY":55.0598,"EPHEMERIS_TYPE":0,"CLASSIFICATION_TYPE":"U","NORAD_CAT_ID":40613,"ELEMENT_SET_NO":999,"REV_AT_EPOCH":3975,"BSTAR":0,"MEAN_MOTION_DOT":-2.3e-7,"MEAN_MOTION_DDOT":0},{"OBJECT_NAME":"TURKMENALEM52E/MONACOSAT","OBJECT_ID":"2015-023A","EPOCH":"2026-03-03T16:28:22.117440","MEAN_MOTION":1.00274493,"ECCENTRICITY":0.0002945,"INCLINATION":0.0139,"RA_OF_ASC_NODE":138.836,"ARG_OF_PERICENTER":215.4952,"MEAN_ANOMALY":106.2216,"EPHEMERIS_TYPE":0,"CLASSIFICATION_TYPE":"U","NORAD_CAT_ID":40617,"ELEMENT_SET_NO":999,"REV_AT_EPOCH":3979,"BSTAR":0,"MEAN_MOTION_DOT":8.9e-7,"MEAN_MOTION_DDOT":0},{"OBJECT_NAME":"DIRECTV 15","OBJECT_ID":"2015-026A","EPOCH":"2026-03-03T15:17:53.750688","MEAN_MOTION":1.00271646,"ECCENTRICITY":8.3e-5,"INCLINATION":0.0184,"RA_OF_ASC_NODE":106.3479,"ARG_OF_PERICENTER":103.5608,"MEAN_ANOMALY":78.081,"EPHEMERIS_TYPE":0,"CLASSIFICATION_TYPE":"U","NORAD_CAT_ID":40663,"ELEMENT_SET_NO":999,"REV_AT_EPOCH":3940,"BSTAR":0,"MEAN_MOTION_DOT":-1.17e-6,"MEAN_MOTION_DDOT":0},{"OBJECT_NAME":"SKY MEXICO-1","OBJECT_ID":"2015-026B","EPOCH":"2026-03-03T18:43:02.592768","MEAN_MOTION":1.00269918,"ECCENTRICITY":0.0002243,"INCLINATION":0.0197,"RA_OF_ASC_NODE":131.1785,"ARG_OF_PERICENTER":231.6108,"MEAN_ANOMALY":0.7049,"EPHEMERIS_TYPE":0,"CLASSIFICATION_TYPE":"U","NORAD_CAT_ID":40664,"ELEMENT_SET_NO":999,"REV_AT_EPOCH":3939,"BSTAR":0,"MEAN_MOTION_DOT":-2.48e-6,"MEAN_MOTION_DDOT":0},{"OBJECT_NAME":"METEOSAT-11 (MSG-4)","OBJECT_ID":"2015-034A","EPOCH":"2026-03-03T15:49:58.176768","MEAN_MOTION":1.00265866,"ECCENTRICITY":0.0001803,"INCLINATION":2.9356,"RA_OF_ASC_NODE":71.6854,"ARG_OF_PERICENTER":270.6542,"MEAN_ANOMALY":65.9819,"EPHEMERIS_TYPE":0,"CLASSIFICATION_TYPE":"U","NORAD_CAT_ID":40732,"ELEMENT_SET_NO":999,"REV_AT_EPOCH":615,"BSTAR":0,"MEAN_MOTION_DOT":4.9e-7,"MEAN_MOTION_DDOT":0},{"OBJECT_NAME":"STAR ONE C4","OBJECT_ID":"2015-034B","EPOCH":"2026-03-03T18:52:40.666656","MEAN_MOTION":1.00273038,"ECCENTRICITY":0.0002745,"INCLINATION":0.0411,"RA_OF_ASC_NODE":9.4388,"ARG_OF_PERICENTER":337.2361,"MEAN_ANOMALY":28.0191,"EPHEMERIS_TYPE":0,"CLASSIFICATION_TYPE":"U","NORAD_CAT_ID":40733,"ELEMENT_SET_NO":999,"REV_AT_EPOCH":3895,"BSTAR":0,"MEAN_MOTION_DOT":-2.79e-6,"MEAN_MOTION_DDOT":0},{"OBJECT_NAME":"WGS F7 (USA 263)","OBJECT_ID":"2015-036A","EPOCH":"2026-03-03T13:20:38.674752","MEAN_MOTION":1.00271572,"ECCENTRICITY":1.91e-5,"INCLINATION":0.0159,"RA_OF_ASC_NODE":118.5046,"ARG_OF_PERICENTER":232.1879,"MEAN_ANOMALY":185.7892,"EPHEMERIS_TYPE":0,"CLASSIFICATION_TYPE":"U","NORAD_CAT_ID":40746,"ELEMENT_SET_NO":999,"REV_AT_EPOCH":3881,"BSTAR":0,"MEAN_MOTION_DOT":3.0e-8,"MEAN_MOTION_DDOT":0},{"OBJECT_NAME":"INTELSAT 34 (IS-34)","OBJECT_ID":"2015-039A","EPOCH":"2026-03-03T18:56:47.772384","MEAN_MOTION":1.00270547,"ECCENTRICITY":8.4e-6,"INCLINATION":0.0342,"RA_OF_ASC_NODE":282.0217,"ARG_OF_PERICENTER":309.0996,"MEAN_ANOMALY":159.131,"EPHEMERIS_TYPE":0,"CLASSIFICATION_TYPE":"U","NORAD_CAT_ID":40874,"ELEMENT_SET_NO":999,"REV_AT_EPOCH":3856,"BSTAR":0,"MEAN_MOTION_DOT":-2.99e-6,"MEAN_MOTION_DDOT":0},{"OBJECT_NAME":"EUTELSAT 8 WEST B","OBJECT_ID":"2015-039B","EPOCH":"2026-03-03T19:10:23.968992","MEAN_MOTION":1.00271622,"ECCENTRICITY":0.0003806,"INCLINATION":0.0665,"RA_OF_ASC_NODE":355.6192,"ARG_OF_PERICENTER":347.7132,"MEAN_ANOMALY":97.8181,"EPHEMERIS_TYPE":0,"CLASSIFICATION_TYPE":"U","NORAD_CAT_ID":40875,"ELEMENT_SET_NO":999,"REV_AT_EPOCH":3860,"BSTAR":0,"MEAN_MOTION_DOT":-8.0e-7,"MEAN_MOTION_DDOT":0},{"OBJECT_NAME":"GSAT-6","OBJECT_ID":"2015-041A","EPOCH":"2026-03-03T17:23:20.181696","MEAN_MOTION":1.00270703,"ECCENTRICITY":0.0003097,"INCLINATION":1.6459,"RA_OF_ASC_NODE":83.9843,"ARG_OF_PERICENTER":265.4704,"MEAN_ANOMALY":155.3177,"EPHEMERIS_TYPE":0,"CLASSIFICATION_TYPE":"U","NORAD_CAT_ID":40880,"ELEMENT_SET_NO":999,"REV_AT_EPOCH":3854,"BSTAR":0,"MEAN_MOTION_DOT":-1.72e-6,"MEAN_MOTION_DDOT":0},{"OBJECT_NAME":"INMARSAT 5-F3","OBJECT_ID":"2015-042A","EPOCH":"2026-03-03T11:18:38.838240","MEAN_MOTION":1.00269188,"ECCENTRICITY":0.00013747,"INCLINATION":0.0203,"RA_OF_ASC_NODE":127.3947,"ARG_OF_PERICENTER":263.8816,"MEAN_ANOMALY":119.2231,"EPHEMERIS_TYPE":0,"CLASSIFICATION_TYPE":"U","NORAD_CAT_ID":40882,"ELEMENT_SET_NO":999,"REV_AT_EPOCH":3851,"BSTAR":0,"MEAN_MOTION_DOT":3.5e-7,"MEAN_MOTION_DDOT":0},{"OBJECT_NAME":"MUOS-4","OBJECT_ID":"2015-044A","EPOCH":"2026-03-03T17:22:53.587776","MEAN_MOTION":1.00271534,"ECCENTRICITY":0.0058081,"INCLINATION":4.1325,"RA_OF_ASC_NODE":41.5176,"ARG_OF_PERICENTER":358.0425,"MEAN_ANOMALY":97.6075,"EPHEMERIS_TYPE":0,"CLASSIFICATION_TYPE":"U","NORAD_CAT_ID":40887,"ELEMENT_SET_NO":999,"REV_AT_EPOCH":3850,"BSTAR":0,"MEAN_MOTION_DOT":-1.04e-6,"MEAN_MOTION_DDOT":0},{"OBJECT_NAME":"TJS-1","OBJECT_ID":"2015-046A","EPOCH":"2026-03-03T19:56:47.310432","MEAN_MOTION":1.0027121,"ECCENTRICITY":0.0004311,"INCLINATION":0.052,"RA_OF_ASC_NODE":85.5899,"ARG_OF_PERICENTER":293.1168,"MEAN_ANOMALY":237.1115,"EPHEMERIS_TYPE":0,"CLASSIFICATION_TYPE":"U","NORAD_CAT_ID":40892,"ELEMENT_SET_NO":999,"REV_AT_EPOCH":3851,"BSTAR":0,"MEAN_MOTION_DOT":-1.7e-6,"MEAN_MOTION_DDOT":0},{"OBJECT_NAME":"EXPRESS-AM8","OBJECT_ID":"2015-048A","EPOCH":"2026-02-28T15:50:17.087136","MEAN_MOTION":1.00269735,"ECCENTRICITY":2.136e-5,"INCLINATION":0.023,"RA_OF_ASC_NODE":152.9676,"ARG_OF_PERICENTER":152.2105,"MEAN_ANOMALY":76.8771,"EPHEMERIS_TYPE":0,"CLASSIFICATION_TYPE":"U","NORAD_CAT_ID":40895,"ELEMENT_SET_NO":999,"REV_AT_EPOCH":3825,"BSTAR":0,"MEAN_MOTION_DOT":0,"MEAN_MOTION_DDOT":0},{"OBJECT_NAME":"SKY MUSTER 1 (NBN1A)","OBJECT_ID":"2015-054A","EPOCH":"2026-03-03T18:09:52.267680","MEAN_MOTION":1.00268191,"ECCENTRICITY":0.0001857,"INCLINATION":0.0188,"RA_OF_ASC_NODE":164.4512,"ARG_OF_PERICENTER":176.8148,"MEAN_ANOMALY":232.961,"EPHEMERIS_TYPE":0,"CLASSIFICATION_TYPE":"U","NORAD_CAT_ID":40940,"ELEMENT_SET_NO":999,"REV_AT_EPOCH":3820,"BSTAR":0,"MEAN_MOTION_DOT":0,"MEAN_MOTION_DDOT":0},{"OBJECT_NAME":"ARSAT 2","OBJECT_ID":"2015-054B","EPOCH":"2026-03-03T11:58:42.245184","MEAN_MOTION":1.00268378,"ECCENTRICITY":0.0002018,"INCLINATION":0.0209,"RA_OF_ASC_NODE":122.3101,"ARG_OF_PERICENTER":214.6918,"MEAN_ANOMALY":282.9482,"EPHEMERIS_TYPE":0,"CLASSIFICATION_TYPE":"U","NORAD_CAT_ID":40941,"ELEMENT_SET_NO":999,"REV_AT_EPOCH":3824,"BSTAR":0,"MEAN_MOTION_DOT":0,"MEAN_MOTION_DDOT":0},{"OBJECT_NAME":"MORELOS 3","OBJECT_ID":"2015-056A","EPOCH":"2026-03-03T16:57:36.694944","MEAN_MOTION":1.00272478,"ECCENTRICITY":0.0002925,"INCLINATION":3.1082,"RA_OF_ASC_NODE":12.0738,"ARG_OF_PERICENTER":4.5201,"MEAN_ANOMALY":286.168,"EPHEMERIS_TYPE":0,"CLASSIFICATION_TYPE":"U","NORAD_CAT_ID":40946,"ELEMENT_SET_NO":999,"REV_AT_EPOCH":3822,"BSTAR":0,"MEAN_MOTION_DOT":-5.5e-7,"MEAN_MOTION_DDOT":0}]
