THOR 7                  
1 40613U 15022A   26062.65770778 -.00000023  00000+0  00000+0 0  9991
2 40613   0.0090 190.8506 0002654 151.6060  55.0598  1.00271160 39754
TURKMENALEM52E/MONACOSAT
1 40617U 15023A   26062.68636710  .00000089  00000+0  00000+0 0  9997
2 40617   0.0139 138.8360 0002945 215.4952 106.2216  1.00274493 39796
DIRECTV 15              
1 40663U 15026A   26062.63742767 -.00000117  00000+0  00000+0 0  9999
2 40663   0.0184 106.3479 0000830 103.5608  78.0810  1.00271646 39405
SKY MEXICO-1            
1 40664U 15026B   26062.77989112 -.00000248  00000+0  00000+0 0  9997
2 40664   0.0197 131.1785 0002243 231.6108   0.7049  1.00269918 39397
METEOSAT-11 (MSG-4)     
1 40732U 15034A   26062.65970112  .00000049  00000+0  00000+0 0  9997
2 40732   2.9356  71.6854 0001803 270.6542  65.9819  1.00265866  6156
STAR ONE C4             
1 40733U 15034B   26062.78658179 -.00000279  00000+0  00000+0 0  9994
2 40733   0.0411   9.4388 0002745 337.2361  28.0191  1.00273038 38950
WGS F7 (USA 263)        
1 40746U 15036A   26062.55600318  .00000003  00000+0  00000+0 0  9991
2 40746   0.0159 118.5046 0000191 232.1879 185.7892  1.00271572 38811
INTELSAT 34 (IS-34)     
1 40874U 15039A   26062.78944181 -.00000299  00000+0  00000+0 0  9998
2 40874   0.0342 282.0217 0000084 309.0996 159.1310  1.00270547 38562
EUTELSAT 8 WEST B       
1 40875U 15039B   26062.79888853 -.00000080  00000+0  00000+0 0  9991
2 40875   0.0665 355.6192 0003806 347.7132  97.8181  1.00271622 38600
GSAT-6                  
1 40880U 15041A   26062.72453914 -.00000172  00000+0  00000+0 0  9991
2 40880   1.6459  83.9843 0003097 265.4704 155.3177  1.00270703 38548
INMARSAT 5-F3           
1 40882U 15042A   26062.47128285  .00000035  00000+0  00000+0 0  9993
2 40882   0.0203 127.3947 0001374 263.8816 119.2231  1.00269188 38512
MUOS-4                  
1 40887U 15044A   26062.72423134 -.00000104  00000+0  00000+0 0  9997
2 40887   4.1325  41.5176 0058081 358.0425  97.6075  1.00271534 38500
TJS-1                   
1 40892U 15046A   26062.83110313 -.00000170  00000+0  00000+0 0  9992
2 40892   0.0520  85.5899 0004311 293.1168 237.1115  1.00271210 38516
EXPRESS-AM8             
1 40895U 15048A   26059.65991999  .00000000  00000+0  00000+0 0  9991
2 40895   0.0230 152.9676 0000213 152.2105  76.8771  1.00269735 38258
SKY MUSTER 1 (NBN1A)    
1 40940U 15054A   26062.75685495  .00000000  00000+0  00000+0 0  9995
2 40940   0.0188 164.4512 0001857 176.8148 232.9610  1.00268191 38209
ARSAT 2                 
1 40941U 15054B   26062.49910006  .00000000  00000+0  00000+0 0  9996
2 40941   0.0209 122.3101 0002018 214.6918 282.9482  1.00268378 38240
MORELOS 3               
1 40946U 15056A   26062.70667471 -.00000055  00000+0  00000+0 0  9993
2 40946   3.1082  12.0738 0002925   4.5201 286.1680  1.00272478 38227
